OBJECT_NAME,OBJECT_ID,EPOCH,MEAN_MOTION,ECCENTRICITY,INCLINATION,RA_OF_ASC_NODE,ARG_OF_PERICENTER,MEAN_ANOMALY,EPHEMERIS_TYPE,CLASSIFICATION_TYPE,NORAD_CAT_ID,ELEMENT_SET_NO,REV_AT_EPOCH,BSTAR,MEAN_MOTION_DOT,MEAN_MOTION_DDOT
HAWK-5A,2022-057AB,2026-06-04T23:31:54.160608,15.50936927,.00060886,97.6595,314.0463,115.5165,244.6716,0,U,52757,999,22445,.3847848E-3,.22234E-3,0
HAWK-6B,2023-011A,2026-06-05T01:13:31.767168,15.22819239,.0004333,40.4987,62.8526,296.9560,63.0806,0,U,55324,999,18599,.23101122E-3,.5326E-4,0
HAWK-6C,2023-011C,2026-06-03T22:27:11.190816,15.22812682,.00048268,40.4982,66.1967,281.1122,78.9144,0,U,55326,999,18583,.20221376E-3,.4636E-4,0
HAWK-6A,2023-011D,2026-06-05T01:12:38.998368,15.22820528,.00044201,40.4988,61.3185,286.1808,73.8514,0,U,55327,999,18600,.23813746E-3,.5497E-4,0
HAWK-7A,2023-054P,2026-06-03T17:52:26.507136,15.27201148,.00040294,97.2671,42.4316,97.2300,262.9398,0,U,56191,999,17497,.73868883E-4,.1898E-4,0
HAWK-7B,2023-054R,2026-06-04T23:44:59.119296,15.27230971,.00040271,97.2736,41.8967,92.4589,267.7112,0,U,56193,999,17516,.25432717E-3,.6717E-4,0
HAWK-7C,2023-054Y,2026-06-04T23:44:48.909408,15.27228175,.00041425,97.2714,42.6690,84.9827,275.1885,0,U,56200,999,17516,.24690769E-3,.6518E-4,0
